start=new Date('2023-06-01T00:00:00.000Z').valueOf();
sats=[{"REV_AT_EPOCH":"1212","SEMIMAJOR_AXIS":"6950.195","CENTER_NAME":"EARTH","ELEMENT_SET_NO":"999","ECCENTRICITY":"0.00031530","EPHEMERIS_TYPE":"0","TLE_LINE2":"2 55923  70.0002 338.0147 0003153 269.4580  86.9362 14.98329356 12127","RA_OF_ASC_NODE":"338.0147","RCS_SIZE":"LARGE","OBJECT_TYPE":"PAYLOAD","SITE":"AFWTR","TLE_LINE1":"1 55923U 23037K   23151.91667824  .00040349  00000-0  33700-2 0  9999","LAUNCH_DATE":"2023-03-17","DECAY_DATE":null,"ARG_OF_PERICENTER":"269.4580","EPOCH":"2023-05-31T22:00:00.999936","MEAN_MOTION_DOT":"0.00040349","MEAN_MOTION":"14.98329356","OBJECT_ID":"2023-037K","APOAPSIS":"574.251","FILE":"3921876","TIME_SYSTEM":"UTC","MEAN_MOTION_DDOT":"0.0000000000000","REF_FRAME":"TEME","GP_ID":"232900770","COUNTRY_CODE":"US","BSTAR":"0.00337000000000","PERIOD":"96.107","INCLINATION":"70.0002","MEAN_ANOMALY":"86.9362","MEAN_ELEMENT_THEORY":"SGP4","OBJECT_NAME":"STARLINK-5854","CLASSIFICATION_TYPE":"U","NORAD_CAT_ID":"55923","PERIAPSIS":"569.868"},{"EPOCH":"2023-05-31T21:49:30.162432","ARG_OF_PERICENTER":"281.1592","OBJECT_ID":"2023-037L","APOAPSIS":"361.319","MEAN_MOTION_DOT":"0.00001675","MEAN_MOTION":"15.69921021","TLE_LINE1":"1 55924U 23037L   23151.90937688  .00001675  00000-0  15698-4 0  9994","OBJECT_TYPE":"PAYLOAD","SITE":"AFWTR","DECAY_DATE":null,"LAUNCH_DATE":"2023-03-17","OBJECT_NAME":"STARLINK-5849","PERIAPSIS":"356.931","CLASSIFICATION_TYPE":"U","NORAD_CAT_ID":"55924","TIME_SYSTEM":"UTC","MEAN_MOTION_DDOT":"0.0000000000000","REF_FRAME":"TEME","FILE":"3922037","MEAN_ELEMENT_THEORY":"SGP4","MEAN_ANOMALY":"78.9237","GP_ID":"232931187","COUNTRY_CODE":"US","PERIOD":"91.724","BSTAR":"0.00001569800000","INCLINATION":"69.9970","SEMIMAJOR_AXIS":"6737.260","CENTER_NAME":"EARTH","ELEMENT_SET_NO":"999","REV_AT_EPOCH":"1198","RA_OF_ASC_NODE":"329.8076","RCS_SIZE":"LARGE","EPHEMERIS_TYPE":"0","TLE_LINE2":"2 55924  69.9970 329.8076 0003257 281.1592  78.9237 15.69921021 11988","ECCENTRICITY":"0.00032570"},{"REV_AT_EPOCH":"1178","ELEMENT_SET_NO":"999","CENTER_NAME":"EARTH","SEMIMAJOR_AXIS":"6950.177","ECCENTRICITY":"0.00032980","TLE_LINE2":"2 55925  69.9990 337.9691 0003298 272.9463  87.1319 14.98335297 11780","EPHEMERIS_TYPE":"0","RA_OF_ASC_NODE":"337.9691","RCS_SIZE":"LARGE","LAUNCH_DATE":"2023-03-17","DECAY_DATE":null,"SITE":"AFWTR","OBJECT_TYPE":"PAYLOAD","TLE_LINE1":"1 55925U 23037M   23151.90482528 -.00000892  00000-0 -66932-4 0  9992","MEAN_MOTION_DOT":"-0.00000892","MEAN_MOTION":"14.98335297","APOAPSIS":"574.334","OBJECT_ID":"2023-037M","ARG_OF_PERICENTER":"272.9463","EPOCH":"2023-05-31T21:42:56.904192","PERIOD":"96.107","BSTAR":"-0.00006693200000","INCLINATION":"69.9990","GP_ID":"232929935","COUNTRY_CODE":"US","MEAN_ELEMENT_THEORY":"SGP4","MEAN_ANOMALY":"87.1319","FILE":"3922037","REF_FRAME":"TEME","MEAN_MOTION_DDOT":"0.0000000000000","TIME_SYSTEM":"UTC","NORAD_CAT_ID":"55925","CLASSIFICATION_TYPE":"U","PERIAPSIS":"569.749","OBJECT_NAME":"STARLINK-5922"},{"REV_AT_EPOCH":"1198","CENTER_NAME":"EARTH","SEMIMAJOR_AXIS":"6737.239","ELEMENT_SET_NO":"999","ECCENTRICITY":"0.00034920","TLE_LINE2":"2 55926  69.9967 329.8085 0003492 274.9638  85.1159 15.69928297 11983","EPHEMERIS_TYPE":"0","RA_OF_ASC_NODE":"329.8085","RCS_SIZE":"LARGE","SITE":"AFWTR","OBJECT_TYPE":"PAYLOAD","TLE_LINE1":"1 55926U 23037N   23151.90947992  .00000728  00000-0  78204-5 0  9996","LAUNCH_DATE":"2023-03-17","DECAY_DATE":null,"ARG_OF_PERICENTER":"274.9638","EPOCH":"2023-05-31T21:49:39.065088","MEAN_MOTION_DOT":"0.00000728","MEAN_MOTION":"15.69928297","APOAPSIS":"361.457","OBJECT_ID":"2023-037N","FILE":"3922037","MEAN_MOTION_DDOT":"0.0000000000000","REF_FRAME":"TEME","TIME_SYSTEM":"UTC","PERIOD":"91.724","BSTAR":"0.00000782040000","INCLINATION":"69.9967","COUNTRY_CODE":"US","GP_ID":"232930185","MEAN_ELEMENT_THEORY":"SGP4","MEAN_ANOMALY":"85.1159","OBJECT_NAME":"STARLINK-5921","NORAD_CAT_ID":"55926","CLASSIFICATION_TYPE":"U","PERIAPSIS":"356.751"},{"PERIAPSIS":"569.789","CLASSIFICATION_TYPE":"U","NORAD_CAT_ID":"55927","OBJECT_NAME":"STARLINK-5919","MEAN_ELEMENT_THEORY":"SGP4","MEAN_ANOMALY":"172.1314","GP_ID":"232903899","COUNTRY_CODE":"US","INCLINATION":"70.0004","PERIOD":"96.107","BSTAR":"0.00034059000000","TIME_SYSTEM":"UTC","MEAN_MOTION_DDOT":"0.0000000000000","REF_FRAME":"TEME","FILE":"3921980","OBJECT_ID":"2023-037P","APOAPSIS":"574.356","MEAN_MOTION":"14.98325239","MEAN_MOTION_DOT":"0.00003973","EPOCH":"2023-05-31T22:00:00.999936","ARG_OF_PERICENTER":"274.4197","DECAY_DATE":null,"LAUNCH_DATE":"2023-03-17","TLE_LINE1":"1 55927U 23037P   23151.91667824  .00003973  00000-0  34059-3 0  9994","OBJECT_TYPE":"PAYLOAD","SITE":"AFWTR","RA_OF_ASC_NODE":"337.9142","RCS_SIZE":"LARGE","EPHEMERIS_TYPE":"0","TLE_LINE2":"2 55927  70.0004 337.9142 0003285 274.4197 172.1314 14.98325239 12123","ECCENTRICITY":"0.00032850","ELEMENT_SET_NO":"999","SEMIMAJOR_AXIS":"6950.208","CENTER_NAME":"EARTH","REV_AT_EPOCH":"1212"},{"RCS_SIZE":"LARGE","RA_OF_ASC_NODE":"337.9251","ECCENTRICITY":"0.00027600","EPHEMERIS_TYPE":"0","TLE_LINE2":"2 55928  69.9992 337.9251 0002760 270.1036  89.9806 14.98335975 11780","SEMIMAJOR_AXIS":"6950.174","CENTER_NAME":"EARTH","ELEMENT_SET_NO":"999","REV_AT_EPOCH":"1178","OBJECT_NAME":"STARLINK-5930","CLASSIFICATION_TYPE":"U","NORAD_CAT_ID":"55928","PERIAPSIS":"570.121","FILE":"3922037","TIME_SYSTEM":"UTC","MEAN_MOTION_DDOT":"0.0000000000000","REF_FRAME":"TEME","GP_ID":"232930688","COUNTRY_CODE":"US","BSTAR":"-0.00005447900000","PERIOD":"96.107","INCLINATION":"69.9992","MEAN_ELEMENT_THEORY":"SGP4","MEAN_ANOMALY":"89.9806","ARG_OF_PERICENTER":"270.1036","EPOCH":"2023-05-31T21:24:54.871200","MEAN_MOTION_DOT":"-0.00000743","MEAN_MOTION":"14.98335975","OBJECT_ID":"2023-037Q","APOAPSIS":"573.958","OBJECT_TYPE":"PAYLOAD","SITE":"AFWTR","TLE_LINE1":"1 55928U 23037Q   23151.89230175 -.00000743  00000-0 -54479-4 0  9990","LAUNCH_DATE":"2023-03-17","DECAY_DATE":null},{"REV_AT_EPOCH":"1178","CENTER_NAME":"EARTH","SEMIMAJOR_AXIS":"6950.191","ELEMENT_SET_NO":"999","ECCENTRICITY":"0.00025840","TLE_LINE2":"2 55929  69.9989 337.9390 0002584 271.4126  88.6737 14.98330556 11788","EPHEMERIS_TYPE":"0","RA_OF_ASC_NODE":"337.9390","RCS_SIZE":"LARGE","SITE":"AFWTR","OBJECT_TYPE":"PAYLOAD","TLE_LINE1":"1 55929U 23037R   23151.89647102  .00000428  00000-0  43683-4 0  9996","LAUNCH_DATE":"2023-03-17","DECAY_DATE":null,"ARG_OF_PERICENTER":"271.4126","EPOCH":"2023-05-31T21:30:55.096128","MEAN_MOTION_DOT":"0.00000428","MEAN_MOTION":"14.98330556","APOAPSIS":"573.852","OBJECT_ID":"2023-037R","FILE":"3922037","REF_FRAME":"TEME","MEAN_MOTION_DDOT":"0.0000000000000","TIME_SYSTEM":"UTC","PERIOD":"96.107","INCLINATION":"69.9989","BSTAR":"0.00004368300000","GP_ID":"232929436","COUNTRY_CODE":"US","MEAN_ELEMENT_THEORY":"SGP4","MEAN_ANOMALY":"88.6737","OBJECT_NAME":"STARLINK-5898","NORAD_CAT_ID":"55929","CLASSIFICATION_TYPE":"U","PERIAPSIS":"570.260"},{"TLE_LINE1":"1 55930U 23037S   23151.90926787  .00001891  00000-0  17494-4 0  9995","SITE":"AFWTR","OBJECT_TYPE":"PAYLOAD","DECAY_DATE":null,"LAUNCH_DATE":"2023-03-17","EPOCH":"2023-05-31T21:49:20.743968","ARG_OF_PERICENTER":"271.6825","APOAPSIS":"361.403","OBJECT_ID":"2023-037S","MEAN_MOTION":"15.69928087","MEAN_MOTION_DOT":"0.00001891","REF_FRAME":"TEME","MEAN_MOTION_DDOT":"0.0000000000000","TIME_SYSTEM":"UTC","FILE":"3922037","MEAN_ELEMENT_THEORY":"SGP4","MEAN_ANOMALY":"88.3980","PERIOD":"91.724","BSTAR":"0.00001749400000","INCLINATION":"69.9972","GP_ID":"232929686","COUNTRY_CODE":"US","OBJECT_NAME":"STARLINK-5896","PERIAPSIS":"356.807","NORAD_CAT_ID":"55930","CLASSIFICATION_TYPE":"U","REV_AT_EPOCH":"1198","CENTER_NAME":"EARTH","SEMIMAJOR_AXIS":"6737.240","ELEMENT_SET_NO":"999","TLE_LINE2":"2 55930  69.9972 329.8078 0003411 271.6825  88.3980 15.69928087 11983","EPHEMERIS_TYPE":"0","ECCENTRICITY":"0.00034110","RA_OF_ASC_NODE":"329.8078","RCS_SIZE":"LARGE"},{"OBJECT_NAME":"STARLINK-5897","PERIAPSIS":"569.854","CLASSIFICATION_TYPE":"U","NORAD_CAT_ID":"55931","TIME_SYSTEM":"UTC","REF_FRAME":"TEME","MEAN_MOTION_DDOT":"0.0000000000000","FILE":"3922037","MEAN_ELEMENT_THEORY":"SGP4","MEAN_ANOMALY":"89.1246","COUNTRY_CODE":"US","GP_ID":"232930937","INCLINATION":"69.9987","PERIOD":"96.107","BSTAR":"0.00000863400000","EPOCH":"2023-05-31T21:18:54.040608","ARG_OF_PERICENTER":"270.9549","OBJECT_ID":"2023-037T","APOAPSIS":"574.271","MEAN_MOTION_DOT":"0.00000010","MEAN_MOTION":"14.98328505","TLE_LINE1":"1 55931U 23037T   23151.88812547  .00000010  00000-0  86340-5 0  9990","OBJECT_TYPE":"PAYLOAD","SITE":"AFWTR","DECAY_DATE":null,"LAUNCH_DATE":"2023-03-17","RA_OF_ASC_NODE":"337.9090","RCS_SIZE":"LARGE","EPHEMERIS_TYPE":"0","TLE_LINE2":"2 55931  69.9987 337.9090 0003177 270.9549  89.1246 14.98328505 11780","ECCENTRICITY":"0.00031770","SEMIMAJOR_AXIS":"6950.198","CENTER_NAME":"EARTH","ELEMENT_SET_NO":"999","REV_AT_EPOCH":"1178"},{"REV_AT_EPOCH":"1198","ELEMENT_SET_NO":"999","SEMIMAJOR_AXIS":"6737.268","CENTER_NAME":"EARTH","ECCENTRICITY":"0.00033730","EPHEMERIS_TYPE":"0","TLE_LINE2":"2 55932  69.9967 329.7941 0003373 272.8646  87.2164 15.69918064 11984","RA_OF_ASC_NODE":"329.7941","RCS_SIZE":"LARGE","LAUNCH_DATE":"2023-03-17","DECAY_DATE":null,"OBJECT_TYPE":"PAYLOAD","SITE":"AFWTR","TLE_LINE1":"1 55932U 23037U   23151.90590405 -.00001325  00000-0 -92495-5 0  9990","MEAN_MOTION_DOT":"-0.00001325","MEAN_MOTION":"15.69918064","OBJECT_ID":"2023-037U","APOAPSIS":"361.406","ARG_OF_PERICENTER":"272.8646","EPOCH":"2023-05-31T21:44:30.109920","COUNTRY_CODE":"US","GP_ID":"232931188","PERIOD":"91.725","BSTAR":"-0.00000924950000","INCLINATION":"69.9967","MEAN_ELEMENT_THEORY":"SGP4","MEAN_ANOMALY":"87.2164","FILE":"3922037","TIME_SYSTEM":"UTC","REF_FRAME":"TEME","MEAN_MOTION_DDOT":"0.0000000000000","CLASSIFICATION_TYPE":"U","NORAD_CAT_ID":"55932","PERIAPSIS":"356.861","OBJECT_NAME":"STARLINK-5848"}];
